[{"OBJECT_NAME":"ALICE","OBJECT_ID":"2013-072F","EPOCH":"2026-03-09T16:03:25.924320","MEAN_MOTION":15.07155655,"ECCENTRICITY":0.01592016,"INCLINATION":120.4625,"RA_OF_ASC_NODE":282.3278,"ARG_OF_PERICENTER":246.5562,"MEAN_ANOMALY":111.8695,"EPHEMERIS_TYPE":0,"CLASSIFICATION_TYPE":"U","NORAD_CAT_ID":39467,"ELEMENT_SET_NO":999,"REV_AT_EPOCH":10026,"BSTAR":0.00062398338,"MEAN_MOTION_DOT":0.00012311,"MEAN_MOTION_DDOT":0},{"OBJECT_NAME":"STARLINK-31954","OBJECT_ID":"2024-117M","EPOCH":"2026-03-09T07:07:58.742688","MEAN_MOTION":15.30157979,"ECCENTRICITY":8.311e-5,"INCLINATION":53.1621,"RA_OF_ASC_NODE":39.142,"ARG_OF_PERICENTER":93.5893,"MEAN_ANOMALY":266.5203,"EPHEMERIS_TYPE":0,"CLASSIFICATION_TYPE":"U","NORAD_CAT_ID":60102,"ELEMENT_SET_NO":999,"REV_AT_EPOCH":9682,"BSTAR":-0.00013091889,"MEAN_MOTION_DOT":-4.229e-5,"MEAN_MOTION_DDOT":0}]
